[{"OBJECT_NAME":"OBJECT AL","OBJECT_ID":"2023-085AL","EPOCH":"2026-03-09T22:26:04.970400","MEAN_MOTION":15.31857284,"ECCENTRICITY":0.000802,"INCLINATION":97.4839,"RA_OF_ASC_NODE":180.0127,"ARG_OF_PERICENTER":78.7242,"MEAN_ANOMALY":281.49,"EPHEMERIS_TYPE":0,"CLASSIFICATION_TYPE":"U","NORAD_CAT_ID":57038,"ELEMENT_SET_NO":999,"REV_AT_EPOCH":15154,"BSTAR":0.0006591637,"MEAN_MOTION_DOT":0.00020246,"MEAN_MOTION_DDOT":0},{"OBJECT_NAME":"STARLINK-35964","OBJECT_ID":"2025-278F","EPOCH":"2026-03-09T11:15:11.371104","MEAN_MOTION":15.27590262,"ECCENTRICITY":0.00023157,"INCLINATION":43.0059,"RA_OF_ASC_NODE":100.7099,"ARG_OF_PERICENTER":252.2237,"MEAN_ANOMALY":107.8362,"EPHEMERIS_TYPE":0,"CLASSIFICATION_TYPE":"U","NORAD_CAT_ID":66796,"ELEMENT_SET_NO":999,"REV_AT_EPOCH":1534,"BSTAR":0.0010740251,"MEAN_MOTION_DOT":0.00029421,"MEAN_MOTION_DDOT":0}]
